IRIDIUM 63              
1 25286U 98021B   25329.14577126  .00000488  00000+0  15884-3 0  9995
2 25286  86.4000  14.5966 0002405  95.3964 264.7507 14.36716140446953
IRIDIUM 69              
1 25319U 98026A   25329.42669777  .00000698  00000+0  21019-3 0  9992
2 25319  86.3996  27.2566 0002417 157.1559 202.9748 14.41189977446285
IRIDIUM 71              
1 25320U 98026B   25329.13705173  .00000383  00000+0  11246-3 0  9995
2 25320  86.3994  22.0534 0000140  52.7163 307.4050 14.41302900446779
IRIDIUM 73              
1 25344U 98032C   25329.48089465  .00000779  00000+0  18806-3 0  9993
2 25344  86.4406 338.3261 0002552 106.1601 253.9886 14.51955271453961
IRIDIUM 82              
1 25467U 98051A   25329.42674153  .00048779  00000+0  95445-3 0  9994
2 25467  86.3627  29.8097 0065816  41.9958 318.6316 15.44822950448728
